      2.10          N: GNSS NAV DATA                        RINEX VERSION / TYPE
fic2rin                                 11/25/2020 00:17:26 PGM / RUN BY / DATE
                                                            END OF HEADER
15 20 11 24 18  0  0.0-1.877830363810e-04 2.614797267597e-12 0.000000000000e+00
    8.000000000000e+01-6.284375000000e+01 5.353794435599e-09 2.025554839415e+00
   -3.349035978317e-06 1.305401104037e-02 9.471550583839e-06 5.153782785416e+03
    2.376000000000e+05-1.881271600723e-07 1.793941181354e+00-2.738088369370e-07
    9.282038711884e-01 1.815937500000e+02 9.517274563887e-01-8.327132572782e-09
   -2.342954736326e-10 1.000000000000e+00 2.133000000000e+03 0.000000000000e+00
    2.400000000000e+00 0.000000000000e+00-1.071020960808e-08 8.000000000000e+01
    2.304000000000e+05 4.000000000000e+00
20 20 11 24 18  0  0.0 5.258885212243e-04-1.136868377216e-13 0.000000000000e+00
    6.400000000000e+01-1.068750000000e+01 5.463799017732e-09 2.499654694366e-01
   -6.034970283508e-07 5.854181596078e-03 4.353001713753e-06 5.153658554077e+03
    2.376000000000e+05 6.891787052155e-08 7.176226521839e-01-7.450580596924e-09
    9.359336465131e-01 2.817500000000e+02 2.769677054475e+00-8.683575991509e-09
    1.785788670980e-10 1.000000000000e+00 2.133000000000e+03 0.000000000000e+00
    2.400000000000e+00 0.000000000000e+00-8.381903171539e-09 6.400000000000e+01
    2.304000000000e+05 4.000000000000e+00
28 20 11 24 18  0  0.0 6.514759734273e-04-4.774847184308e-12 0.000000000000e+00
    8.100000000000e+01 1.068750000000e+01 4.264106188567e-09-2.565634552634e+00
    6.277114152908e-07 1.835583255161e-02 4.442408680916e-06 5.153665464401e+03
    2.376000000000e+05 1.713633537292e-07-2.191127193723e+00 1.396983861923e-07
    9.751392658703e-01 3.000937500000e+02-1.373044944696e+00-7.776752504386e-09
   -1.900079145923e-10 1.000000000000e+00 2.133000000000e+03 0.000000000000e+00
    3.400000000000e+00 0.000000000000e+00-1.117587089539e-08 8.100000000000e+01
    2.304000000000e+05 4.000000000000e+00
23 20 11 24 18  0  0.0 1.039262861013e-04 4.092726157978e-12 0.000000000000e+00
    2.140000000000e+02-2.175000000000e+01 4.838415825154e-09 7.435020050886e-01
   -1.138076186180e-06 1.103672198951e-03 4.718080163002e-06 5.153626310349e+03
    2.376000000000e+05 1.490116119385e-08 8.319684371334e-01 1.862645149231e-08
    9.621148272130e-01 2.893437500000e+02 2.158490461289e+00-8.288916695223e-09
    1.085759511956e-10 1.000000000000e+00 2.133000000000e+03 0.000000000000e+00
    2.400000000000e+00 0.000000000000e+00-8.381903171539e-09 7.260000000000e+02
    2.304000000000e+05 4.000000000000e+00
18 20 11 24 18  0  0.0 3.253091126680e-04 4.433786671143e-12 0.000000000000e+00
    1.950000000000e+02 2.062500000000e+01 4.306965116671e-09 1.025989283040e+00
    1.117587089539e-06 1.173996832222e-03 8.234754204750e-06 5.153704200745e+03
    2.376000000000e+05-5.587935447693e-09-1.668466993204e-01 5.587935447693e-09
    9.662994999900e-01 2.230000000000e+02 2.935494620185e+00-7.976403677801e-09
    3.732298322349e-10 1.000000000000e+00 2.133000000000e+03 0.000000000000e+00
    2.400000000000e+00 0.000000000000e+00-8.381903171539e-09 4.510000000000e+02
    2.304000000000e+05 4.000000000000e+00
14 20 11 24 18  0  0.0 4.123197868466e-05 6.230038707145e-11 0.000000000000e+00
    9.500000000000e+01 1.090625000000e+01 4.748412076137e-09 9.296517197485e-01
    4.544854164124e-07 1.450359122828e-04 4.671514034271e-06 5.153732534409e+03
    2.376000000000e+05 1.676380634308e-08-2.237851016803e+00-2.048909664154e-08
    9.594963238104e-01 2.923125000000e+02 1.601170115139e+00-8.294274061236e-09
   -2.442958901901e-10 1.000000000000e+00 2.133000000000e+03 0.000000000000e+00
    4.850000000000e+00 6.300000000000e+01-2.328306436539e-09 9.500000000000e+01
    2.304000000000e+05 4.000000000000e+00
16 20 11 24 17 59 44.0-2.410351298749e-04-5.343281372916e-12 0.000000000000e+00
    8.000000000000e+00 3.687500000000e+00 4.350538360242e-09-2.404525315617e+00
    1.359730958939e-07 1.177302293945e-02 4.449859261513e-06 5.153605377197e+03
    2.375840000000e+05 8.940696716309e-08-2.194755134007e+00-1.601874828339e-07
    9.760850585006e-01 3.028125000000e+02 6.302907277387e-01-8.011047978018e-09
   -7.464596644698e-11 1.000000000000e+00 2.133000000000e+03 0.000000000000e+00
    2.400000000000e+00 0.000000000000e+00-1.071020960808e-08 8.000000000000e+00
    2.322000000000e+05 4.000000000000e+00
14 20 11 24 18 44 32.0 4.140520468354e-05 6.230038707145e-11 0.000000000000e+00
    9.600000000000e+01 8.875000000000e+00 4.770913013391e-09 1.317151106368e+00
    2.719461917877e-07 1.451914431527e-04 4.503875970840e-06 5.153733188629e+03
    2.402720000000e+05 9.313225746155e-09-2.237873122958e+00 5.587935447693e-09
    9.594955908884e-01 2.941875000000e+02 1.603391586964e+00-8.312131947945e-09
   -2.507247294057e-10 1.000000000000e+00 2.133000000000e+03 0.000000000000e+00
    2.400000000000e+00 6.300000000000e+01-2.328306436539e-09 9.600000000000e+01
    2.331000000000e+05 4.000000000000e+00
 2 20 11 24 17 59 44.0-5.465284921229e-04-4.661160346586e-12 0.000000000000e+00
    2.000000000000e+00 1.800000000000e+01 4.474472094009e-09 1.011813542484e+00
    7.972121238708e-07 2.009868423920e-02 8.974224328995e-06 5.153563688278e+03
    2.375840000000e+05-3.073364496231e-07-2.613099983017e-01-2.458691596985e-07
    9.614867613715e-01 2.087812500000e+02-1.582684710085e+00-8.367491396746e-09
    3.346567969417e-10 1.000000000000e+00 2.133000000000e+03 0.000000000000e+00
    2.400000000000e+00 0.000000000000e+00-1.769512891769e-08 2.000000000000e+00
    2.354400000000e+05 4.000000000000e+00
 2 20 11 24 19 59 44.0-5.465615540743e-04-4.661160346586e-12 0.000000000000e+00
    6.000000000000e+00 1.959375000000e+01 4.170888019942e-09 2.062021188556e+00
    8.661299943924e-07 2.009860891849e-02 8.285045623779e-06 5.153565155029e+03
    2.447840000000e+05 3.594905138016e-07-2.613678713409e-01-2.067536115646e-07
    9.614922429255e-01 2.143750000000e+02-1.582645961774e+00-7.701392222470e-09
    3.350139546759e-10 1.000000000000e+00 2.133000000000e+03 0.000000000000e+00
    2.400000000000e+00 0.000000000000e+00-1.769512891769e-08 6.000000000000e+00
    2.376000000000e+05 4.000000000000e+00
16 20 11 24 19 59 44.0-2.410737797618e-04-5.343281372916e-12 0.000000000000e+00
    9.000000000000e+00 7.125000000000e+00 4.388039922333e-09-1.354394542963e+00
    4.079192876816e-07 1.177349267527e-02 3.932043910027e-06 5.153603170395e+03
    2.447840000000e+05 2.663582563400e-07-2.194812522820e+00-1.024454832077e-07
    9.760843080236e-01 3.105625000000e+02 6.303820577144e-01-8.083550998060e-09
   -1.435774091468e-10 1.000000000000e+00 2.133000000000e+03 0.000000000000e+00
    2.400000000000e+00 0.000000000000e+00-1.071020960808e-08 9.000000000000e+00
    2.376000000000e+05 4.000000000000e+00
23 20 11 24 19 59 44.0 1.039542257786e-04 3.979039320257e-12 0.000000000000e+00
    2.150000000000e+02-2.178125000000e+01 4.831986985939e-09 1.791285342819e+00
   -1.147389411926e-06 1.103751710616e-03 4.675239324570e-06 5.153626544952e+03
    2.447840000000e+05 5.587935447693e-09 8.319088978305e-01 2.607703208923e-08
    9.621155835416e-01 2.904375000000e+02 2.158585363710e+00-8.291416799362e-09
    1.060758470562e-10 1.000000000000e+00 2.133000000000e+03 0.000000000000e+00
    2.400000000000e+00 0.000000000000e+00-8.381903171539e-09 7.270000000000e+02
    2.376000000000e+05 4.000000000000e+00
 1 20 11 24 20  0  0.0 8.039698004723e-04-4.320099833421e-12 0.000000000000e+00
    2.700000000000e+01 1.715625000000e+01 3.872661311888e-09 1.841110790683e+00
    8.735805749893e-07 1.013774995226e-02 8.335337042809e-06 5.153698781967e+03
    2.448000000000e+05-2.533197402954e-07-1.813951080172e-01-3.352761268616e-08
    9.826565508811e-01 2.305625000000e+02 8.260834351538e-01-7.837469319199e-09
    3.289422731946e-10 1.000000000000e+00 2.133000000000e+03 0.000000000000e+00
    2.400000000000e+00 0.000000000000e+00 5.122274160385e-09 2.700000000000e+01
    2.376000000000e+05 4.000000000000e+00
 5 20 11 24 20  0  0.0-2.670567482710e-05-9.094947017729e-13 0.000000000000e+00
    8.500000000000e+01-2.409375000000e+01 4.923419365893e-09-1.586420202643e+00
   -1.203268766403e-06 6.057045771740e-03 4.589557647705e-06 5.153767158508e+03
    2.448000000000e+05 7.264316082001e-08 8.229933074432e-01-7.450580596924e-09
    9.541947569674e-01 2.809062500000e+02 8.948661844828e-01-8.336061516137e-09
    1.600066649198e-10 1.000000000000e+00 2.133000000000e+03 0.000000000000e+00
    2.400000000000e+00 0.000000000000e+00-1.117587089539e-08 8.500000000000e+01
    2.376000000000e+05 4.000000000000e+00
 3 20 11 24 20  0  0.0-1.257145777345e-05-1.000444171950e-11 0.000000000000e+00
    8.200000000000e+01-2.384375000000e+01 4.645907806423e-09 6.458952155340e-01
   -1.471489667892e-06 3.256320371293e-03 4.958361387253e-06 5.153701454163e+03
    2.448000000000e+05-1.862645149231e-09 8.573771254044e-01 2.048909664154e-08
    9.672434873794e-01 2.880312500000e+02 9.004496995272e-01-8.242129032043e-09
    9.536111503035e-11 1.000000000000e+00 2.133000000000e+03 0.000000000000e+00
    2.400000000000e+00 0.000000000000e+00 1.862645149231e-09 8.200000000000e+01
    2.376000000000e+05 4.000000000000e+00
 4 20 11 24 20  0  0.0-1.583974808455e-04-3.524291969370e-12 0.000000000000e+00
    7.900000000000e+01-3.428125000000e+01 4.569833209039e-09-2.743585420454e+00
   -1.722946763039e-06 9.358501993120e-04 9.695068001747e-06 5.153612939835e+03
    2.448000000000e+05 1.862645149231e-09 1.937502563867e+00-1.862645149231e-09
    9.598929486971e-01 1.964687500000e+02-3.056103749914e+00-7.946759585863e-09
   -1.457203555520e-10 1.000000000000e+00 2.133000000000e+03 0.000000000000e+00
    2.400000000000e+00 0.000000000000e+00-4.190951585770e-09 5.910000000000e+02
    2.376000000000e+05 4.000000000000e+00
